STARLINK-35355          
1 66448U 25259AC  25338.16670139 -.00161462  00000+0 -27968-2 0  9990
2 66448  43.0006  97.3584 0001494 265.3608   9.4352 15.50645285  4904
STARLINK-34720          
1 66449U 25259AD  25338.16670139 -.00141805  00000+0 -24506-2 0  9995
2 66449  43.0006  97.3531 0001539 259.8165  16.8984 15.50632395  4791
STARLINK-35334          
1 66450U 25259AE  25338.16670139 -.00074075  00000+0 -12683-2 0  9994
2 66450  43.0004  97.3479 0001571 265.5927  13.0566 15.50588540  4908
VIASAT-3 F2             
1 66454U 25261A   25337.57770919 -.00000054  00000+0  00000+0 0  9994
2 66454   5.5731 293.1816 2342170 184.1311 184.4414  2.28102532   445
ATLAS 5 CENTAUR R/B     
1 66455U 25261B   25337.57658252 -.00000053  00000+0  00000+0 0  9999
2 66455   6.1578 292.5325 2329638 184.6415 175.0756  2.28259378   440
STARLINK-35643          
1 66456U 25262A   25338.16670139 -.02168562  00000+0 -33426-1 0  9998
2 66456  42.9998 121.2997 0001672 269.9867  32.0363 15.56649415  4269
STARLINK-35466          
1 66457U 25262B   25338.16670139 -.02168938  00000+0 -33432-1 0  9993
2 66457  42.9997 121.2902 0001673 265.0486  40.8095 15.56649733  4262
STARLINK-35684          
1 66458U 25262C   25338.16670139 -.02171654  00000+0 -33477-1 0  9992
2 66458  42.9999 121.2947 0001691 262.2106  41.7294 15.56651977  4266
STARLINK-35449          
1 66459U 25262D   25338.16670139 -.02171185  00000+0 -33470-1 0  9995
2 66459  42.9999 121.2852 0001569 266.5490  41.2252 15.56651635  4269
STARLINK-35424          
1 66460U 25262E   25338.16670139 -.02169458  00000+0 -33442-1 0  9996
2 66460  42.9998 121.2802 0001583 269.0171  40.6744 15.56650305  4267
STARLINK-35132          
1 66461U 25262F   25338.16670139 -.02176817  00000+0 -33561-1 0  9996
2 66461  42.9994 121.2752 0001626 266.6744  44.9299 15.56657121  4260
STARLINK-35499          
1 66462U 25262G   25338.16670139 -.02182825  00000+0 -33668-1 0  9991
2 66462  42.9994 121.2700 0001486 263.2508  50.2788 15.56656582  4262
